STARLINK-1008           
1 44714C 19074B   26113.12826389  .01139700  00000+0  23793-1 0  1136
2 44714  53.1550 331.2473 0001510  83.9371 145.7614 15.44371237    18
STARLINK-1012           
1 44718C 19074F   26113.06645833  .01090700  00000+0  23841-1 0  1136
2 44718  53.1596 331.8583 0001442  84.6190 145.6313 15.43044041    15
STARLINK-1017           
1 44723C 19074L   26113.13173611  .00020767  00000+0  74965-3 0  1130
2 44723  53.0487 325.7773 0003079 184.3723 132.1786 15.27941737    15
STARLINK-1019           
1 44724C 19074M   26113.07201389  .00240320  00000+0  46891-3 0  1134
2 44724  53.0339 270.8686 0007392 310.0199  53.1929 15.99317813    14
STARLINK-1020           
1 44725C 19074N   26113.10951389  .01022000  00000+0  24726-1 0  1136
2 44725  53.1610 356.9628 0001509  90.0217 344.6203 15.40040804    12
STARLINK-1036           
1 44741C 19074AE  26113.12756944  .00049229  00000+0  49557-3 0  1138
2 44741  53.0442 331.8851 0004365 143.2995 252.0388 15.64731269    13
STARLINK-1039           
1 44744C 19074AH  26113.07131944  .00052054  00000+0  20308-2 0  1134
2 44744  53.0623  10.5225 0001926  78.3638 184.8915 15.25363718    10
STARLINK-1042           
1 44747C 19074AL  26113.10465278  .00007493  00000+0  12155-3 0  1130
2 44747  53.0416 241.3031 0001010 332.6050 333.4088 15.52136999    12
STARLINK-1043           
1 44748C 19074AM  26113.09284722  .00074203  00000+0  10225-2 0  1130
2 44748  53.0512 339.7760 0001929 156.4617   2.1485 15.56564365    18
STARLINK-1046           
1 44751C 19074AQ  26113.10951389  .00105420  00000+0  18989-2 0  1137
2 44751  53.0515 358.9029 0001698 336.4565 195.3931 15.49144339    19
STARLINK-1047           
1 44752C 19074AR  26113.08312500 -.00013395  00000+0 -40601-3 0  1139
2 44752  53.0688 298.4545 0003046  36.5141 305.2495 15.33583055    11
STARLINK-1048           
1 44753C 19074AS  26113.09423611  .00078419  00000+0  90215-3 0  1139
2 44753  53.0478 313.3492 0002528 207.9974  18.8685 15.61320216    16
STARLINK-1063           
1 44768C 19074BH  26113.12409722  .01076100  00000+0  23891-1 0  1136
2 44768  53.1585  12.2490 0001527  87.7220  61.6024 15.42590103    17
STARLINK-1067           
1 44771C 19074BL  26113.12340278  .00145280  00000+0  13743-2 0  1131
2 44771  53.0470 347.1504 0005577 148.9986 316.7548 15.66230136    15
STARLINK-1068           
1 44772C 19074BM  26113.08520833  .00067797  00000+0  56397-3 0  1133
2 44772  53.0453 321.3963 0003501  87.8390 297.8222 15.69427810    13
STARLINK-1114           
1 44927C 20001P   26113.12201389  .00045959  00000+0  60155-3 0  1137
2 44927  53.0449 114.7667 0004600 341.4100  80.3864 15.57941673    16
STARLINK-1123           
1 44930C 20001S   26113.04423611  .01038800  00000+0  25562-1 0  1135
2 44930  53.1465 138.9318 0001718  93.3347 280.6593 15.39520019    14
STARLINK-1094           
1 44941C 20001AD  26113.12687500  .00948310  00000+0  22469-1 0  1133
2 44941  53.1552 112.5854 0001686  91.6942 356.7710 15.40707722    18
STARLINK-1122           
1 44949C 20001AM  26113.12270833  .00938580  00000+0  23923-1 0  1132
2 44949  53.1571 113.0575 0001655  92.0562 344.0023 15.38500568    15
STARLINK-1080           
1 44961C 20001AZ  26113.09840278  .00054540  00000+0  80614-3 0  1135
2 44961  53.0478  74.7455 0001313  19.6042 110.7183 15.54676439    17
STARLINK-1090           
1 44968C 20001BG  26113.13868056  .00953620  00000+0  24043-1 0  1130
2 44968  53.1511  99.7092 0001987  93.1680 299.9102 15.38823865    19
STARLINK-1132           
1 45044C 20006A   26113.07409722  .00044471  00000+0  79833-3 0  1139
2 45044  53.1544  42.6924 0004495  55.8782  11.2051 15.49262500    10
STARLINK-1131           
1 45047C 20006D   26113.12618056  .00993010  00000+0  23451-1 0  1135
2 45047  53.1582  74.2000 0001954  91.6576 352.9436 15.40783613    13
STARLINK-1134           
1 45048C 20006E   26113.11854167  .00076232  00000+0  13620-2 0  1136
2 45048  53.0304  26.1161 0003755 348.2593 196.0242 15.49382741    18
STARLINK-1156           
1 45054C 20006L   26113.04979167  .00000111  00000+0  36118-5 0  1136
2 45054  53.1590  74.8920 0001560 118.0987 317.0055 15.31190741    13
STARLINK-1159           
1 45057C 20006P   26113.06854167  .00400370  00000+0  64674-3 0  1130
2 45057  53.0374   8.4697 0003096 204.1383 275.9625 16.02530681    17
STARLINK-1166           
1 45060C 20006S   26113.10812500  .00029507  00000+0  47636-3 0  1132
2 45060  53.0488  59.8939 0003158  61.3077 351.9110 15.52254560    15
STARLINK-1169           
1 45061C 20006T   26113.11229167  .00006736  00000+0  20280-3 0  1130
2 45061  53.1573  74.1641 0004050  90.0964   9.3567 15.33786498    17
STARLINK-1171           
1 45062C 20006U   26113.09006944  .00043645  00000+0  37474-3 0  1137
2 45062  53.0437  31.1304 0004626 106.0765  73.2121 15.68666284    15
STARLINK-1133           
1 45064C 20006W   26113.08868056  .00020320  00000+0  66247-3 0  1133
2 45064  53.1593  51.5074 0001540 107.1650 335.1717 15.31251236    16
STARLINK-1167           
1 45071C 20006AD  26113.04354167 -.00000437  00000+0 -13322-4 0  1136
2 45071  53.1589  51.5034 0003906  95.5291  78.9571 15.33375253    12
STARLINK-1168           
1 45072C 20006AE  26113.09354167  .00022844  00000+0  74462-3 0  1137
2 45072  53.1582  51.7000 0001572 115.3645  95.6482 15.31256648    13
STARLINK-1172           
1 45074C 20006AG  26113.06854167  .00019077  00000+0  56554-3 0  1137
2 45074  53.1563  51.0532 0003844 100.0455 285.0710 15.34267961    13
STARLINK-1153           
1 45080C 20006AN  26113.07131944  .00004920  00000+0  15009-3 0  1137
2 45080  53.1591  51.2933 0004324 111.2633 304.5231 15.33371095    12
STARLINK-1151           
1 45081C 20006AP  26113.13868056  .00095583  00000+0  73761-3 0  1130
2 45081  53.0517  20.5728 0004616 118.9251  13.4998 15.71205715    18
STARLINK-1185           
1 45087C 20006AV  26113.07340278 -.00006022  00000+0 -14313-3 0  1130
2 45087  53.1614  34.0355 0002080 125.5640 343.5147 15.41091160    15
STARLINK-1183           
1 45088C 20006AW  26113.10881944  .00028466  00000+0  92807-3 0  1133
2 45088  53.1599  36.1987 0001552 121.0613 309.7632 15.31246628    19
STARLINK-1152           
1 45096C 20006BE  26113.06576389  .00086648  00000+0  18919-2 0  1138
2 45096  53.0375 356.2769 0002570  60.0765 212.1398 15.43570707    11
STARLINK-1184           
1 45098C 20006BG  26113.13034722  .00015183  00000+0  86358-3 0  1137
2 45098  53.0537  44.3704 0001381 284.9860 216.4802 15.12359047    14
STARLINK-1193           
1 45100C 20006BJ  26113.01993056  .00086057  00000+0  93920-3 0  1133
2 45100  53.0493  14.7032 0005909 120.4058 342.3807 15.62653333    11
STARLINK-1143           
1 45179C 20012B   26113.13520833  .00091590  00000+0  62664-3 0  1137
2 45179  53.0430 110.6140 0004275 343.3673 194.1501 15.74032896    10
STARLINK-1202           
1 45183C 20012F   26113.13451389  .00074009  00000+0  24306-2 0  1137
2 45183  53.1553 192.7677 0001879  20.8797 173.6950 15.30987990    15
STARLINK-1216           
1 45185C 20012H   26113.07270833  .00080693  00000+0  26267-2 0  1139
2 45185  53.1569 193.0067 0001909  31.0047 249.2626 15.31270211    19
STARLINK-1225           
1 45187C 20012K   26113.09284722  .00080077  00000+0  26104-2 0  1131
2 45187  53.1575 193.3579 0001823  26.0569  20.7938 15.31224429    15
STARLINK-1230           
1 45189C 20012M   26113.07965278  .00081839  00000+0  26664-2 0  1131
2 45189  53.1560 193.4762 0001759  33.3121 248.5679 15.31240595    13
STARLINK-1234           
1 45190C 20012N   26113.12201389  .00017046  00000+0  14679-3 0  1138
2 45190  53.0402 106.8746 0009116  67.0906 229.8294 15.68563561    15
STARLINK-1269           
1 45197C 20012V   26113.11993056  .00070946  00000+0  23093-2 0  1130
2 45197  53.1564 193.1420 0001430  12.1267 152.5718 15.31276809    11
STARLINK-1154           
1 45198C 20012W   26113.02548611  .00107560  00000+0  16819-2 0  1135
2 45198  53.0432 157.3119 0003861 324.6281 238.2424 15.53094768    11
STARLINK-1199           
1 45201C 20012Z   26113.06784722  .00080399  00000+0  26228-2 0  1134
2 45201  53.1558 177.6388 0001630  43.4031 359.9440 15.31201637    10
STARLINK-1209           
1 45206C 20012AE  26113.09493056  .00034611  00000+0  43600-3 0  1139
2 45206  53.0421 118.6765 0012469  52.4309  21.6009 15.58875165    13
STARLINK-1231           
1 45212C 20012AL  26113.06923611  .00066374  00000+0  26371-2 0  1134
2 45212  53.0363 171.3313 0003764 307.0039 216.1366 15.24743833    13
STARLINK-1271           
1 45217C 20012AR  26113.07409722  .00072104  00000+0  23607-2 0  1139
2 45217  53.1562 177.7473 0001848  34.7328  47.8617 15.31088430    14
STARLINK-1191           
1 45222C 20012AW  26113.08729167  .00064937  00000+0  19105-2 0  1137
2 45222  53.1560 151.9210 0005369  25.5472 339.5938 15.34475905    18
STARLINK-1212           
1 45223C 20012AX  26113.09631944  .00089914  00000+0  10597-2 0  1132
2 45223  53.0433 134.8922 0006277 358.1242  35.2374 15.60666460    17
STARLINK-1215           
1 45225C 20012AZ  26113.14354167  .00037009  00000+0  12047-2 0  1139
2 45225  53.1559 151.7538 0001647  44.4824  34.5154 15.31293737    16
STARLINK-1221           
1 45227C 20012BB  26113.11437500 -.00012187  00000+0 -26774-3 0  1136
2 45227  53.0652  58.8388 0003719 116.3212   0.6997 15.43434679    17
STARLINK-1222           
1 45228C 20012BC  26113.08937500  .00015884  00000+0  25732-3 0  1136
2 45228  53.0535 129.4916 0000631  13.1388   9.5446 15.52172185    16
STARLINK-1226           
1 45229C 20012BD  26113.04493056  .00072280  00000+0  18219-2 0  1130
2 45229  53.1570 150.9747 0002976  41.4910 117.8747 15.39268269    18
STARLINK-1227           
1 45230C 20012BE  26113.04076389  .00078837  00000+0  19829-2 0  1130
2 45230  53.1556 151.1491 0003915  35.3001  27.0000 15.39327529    19
STARLINK-1246           
